[{"OBJECT_NAME":"STARLINK-11559 [DTC]","OBJECT_ID":"2025-019C","EPOCH":"2026-03-09T00:59:11.762304","MEAN_MOTION":15.70891393,"ECCENTRICITY":0.00023273,"INCLINATION":42.9994,"RA_OF_ASC_NODE":310.3491,"ARG_OF_PERICENTER":289.1275,"MEAN_ANOMALY":70.9341,"EPHEMERIS_TYPE":0,"CLASSIFICATION_TYPE":"U","NORAD_CAT_ID":62831,"ELEMENT_SET_NO":999,"REV_AT_EPOCH":6377,"BSTAR":0.0019103566,"MEAN_MOTION_DOT":0.0025283,"MEAN_MOTION_DDOT":0},{"OBJECT_NAME":"OV3-3","OBJECT_ID":"1966-070A","EPOCH":"2026-03-09T22:03:14.294880","MEAN_MOTION":13.42594145,"ECCENTRICITY":0.10245609,"INCLINATION":81.3241,"RA_OF_ASC_NODE":58.4456,"ARG_OF_PERICENTER":54.9014,"MEAN_ANOMALY":314.389,"EPHEMERIS_TYPE":0,"CLASSIFICATION_TYPE":"U","NORAD_CAT_ID":2389,"ELEMENT_SET_NO":999,"REV_AT_EPOCH":58563,"BSTAR":0.00080880724,"MEAN_MOTION_DOT":0.00018028,"MEAN_MOTION_DDOT":0}]
